OBJECT_NAME,OBJECT_ID,EPOCH,MEAN_MOTION,ECCENTRICITY,INCLINATION,RA_OF_ASC_NODE,ARG_OF_PERICENTER,MEAN_ANOMALY,EPHEMERIS_TYPE,CLASSIFICATION_TYPE,NORAD_CAT_ID,ELEMENT_SET_NO,REV_AT_EPOCH,BSTAR,MEAN_MOTION_DOT,MEAN_MOTION_DDOT
ONEWEB-0231,2021-045R,2026-07-18T20:08:49.472736,13.15548665,.00022585,87.8975,252.8919,101.8099,258.3285,0,U,48782,999,24850,-.15316355E-2,-.564E-5,0
ONEWEB-0234,2021-045S,2026-07-18T21:03:23.206752,13.15547425,.00026842,87.8993,252.8663,83.3477,276.7959,0,U,48783,999,24864,-.44710778E-3,-.155E-5,0
ONEWEB-0238,2021-045T,2026-07-18T13:45:39.866976,13.15548659,.0002368,87.8991,252.9234,89.4520,270.6882,0,U,48784,999,24850,-.20475E-3,-.64E-6,0
ONEWEB-0240,2021-045U,2026-07-18T21:34:22.265184,13.15549034,.00023856,87.8990,252.8679,101.4004,258.7395,0,U,48785,999,24857,.21132552E-3,.92E-6,0
ONEWEB-0246,2021-045V,2026-07-18T15:57:49.856832,13.15548038,.00019995,87.8988,252.9184,100.3139,259.8217,0,U,48786,999,24841,.11938189E-3,.58E-6,0
ONEWEB-0210,2021-045W,2026-07-18T20:49:53.418432,13.15547406,.00019837,87.8992,252.8751,120.9040,239.2286,0,U,48787,999,24848,-.59025501E-3,-.209E-5,0
ONEWEB-0214,2021-045X,2026-07-18T21:02:25.703232,13.15546731,.00017666,87.8987,252.8702,102.1647,257.9681,0,U,48788,999,24845,-.56294137E-3,-.199E-5,0
ONEWEB-0221,2021-045Y,2026-07-18T21:12:42.731424,13.15548256,.00021963,87.8987,252.8774,101.9247,258.2130,0,U,48789,999,24854,-.34866565E-3,-.118E-5,0
ONEWEB-0213,2021-045Z,2026-07-18T13:38:38.628096,13.15548562,.0002125,87.8987,252.9431,105.2747,254.8618,0,U,48790,999,24856,-.26855E-3,-.88E-6,0
ONEWEB-0212,2021-045AA,2026-07-18T16:44:35.683872,13.15547159,.00020614,87.8991,252.9117,95.9864,264.1501,0,U,48791,999,24857,.20430436E-4,.21E-6,0
ONEWEB-0227,2021-045AB,2026-07-18T20:22:30.587232,13.15548154,.00021068,87.8991,252.8816,98.4332,261.7038,0,U,48792,999,24854,.23278636E-3,.1E-5,0
ONEWEB-0226,2021-045AC,2026-07-18T20:13:23.003040,13.15547668,.00020229,87.8989,252.8873,102.6961,257.4395,0,U,48793,999,24851,.14493484E-3,.67E-6,0
ONEWEB-0224,2021-045AD,2026-07-18T21:10:25.749408,13.15548349,.00029736,87.8979,252.9119,94.5685,265.5785,0,U,48794,999,24844,-.29171983E-3,-.97E-6,0
ONEWEB-0233,2021-045AE,2026-07-18T21:17:03.306048,13.15550200,.00022923,87.8978,252.9182,102.8374,257.3013,0,U,48795,999,24846,.346984E-5,.14E-6,0
ONEWEB-0190,2021-045AF,2026-07-18T13:40:55.408800,13.15548436,.0002368,87.8985,252.9449,113.7755,246.3624,0,U,48796,999,24849,-.19021E-3,-.59E-6,0
ONEWEB-0236,2021-045AG,2026-07-18T21:24:07.174080,13.15548593,.00020866,87.8974,252.8886,94.5038,265.6331,0,U,48797,999,24842,.85177014E-4,.45E-6,0
ONEWEB-0248,2021-045AH,2026-07-18T16:13:47.687232,13.15548787,.00024649,87.8992,252.9178,105.5298,254.6105,0,U,48798,999,24855,.42845837E-3,.174E-5,0
ONEWEB-0225,2021-045AJ,2026-07-18T20:24:47.804256,13.15548632,.00022841,87.8987,252.8903,110.4566,249.6810,0,U,48799,999,24858,.1368197E-3,.64E-6,0
ONEWEB-0215,2021-045AK,2026-07-18T21:30:56.983104,13.15549099,.00024933,87.8988,252.8656,111.7700,248.3695,0,U,48800,999,24846,.31229535E-3,.13E-5,0
ONEWEB-0216,2021-045AL,2026-07-18T16:16:05.376000,13.15547748,.00020269,87.8988,252.9224,98.3272,261.8088,0,U,48801,999,24844,.23015813E-3,.99E-6,0
ONEWEB-0239,2021-045AM,2026-07-18T16:22:56.247744,13.15547940,.00027683,87.8982,252.9252,109.9424,250.2004,0,U,48802,999,24848,.33558702E-3,.139E-5,0
ONEWEB-0249,2021-060A,2026-07-18T19:40:14.147616,13.16591564,.00021728,87.9077,222.4947,94.1910,265.9470,0,U,48967,999,24377,.2571511E-4,.23E-6,0
ONEWEB-0250,2021-060B,2026-07-18T11:25:00.499008,13.25835331,.00030452,87.9079,220.2173,83.2202,276.9281,0,U,48968,999,24436,-.55233895E-4,-.11E-6,0
ONEWEB-0252,2021-060D,2026-07-18T18:35:16.327392,13.16595537,.0001882,87.9079,222.4956,96.5991,263.5354,0,U,48970,999,24381,-.29460181E-4,.2E-7,0
ONEWEB-0253,2021-060E,2026-07-18T23:47:37.324608,13.16595581,.00021824,87.9079,222.4576,91.0502,269.0879,0,U,48971,999,24377,.130654E-3,.63E-6,0
ONEWEB-0254,2021-060F,2026-07-18T02:08:05.215200,13.16594644,.00023338,87.9082,222.6354,97.7093,262.4303,0,U,48972,999,24365,-.9179838E-4,-.22E-6,0
ONEWEB-0255,2021-060G,2026-07-18T19:27:43.606368,13.16593291,.00022321,87.9075,222.4980,97.7296,262.4089,0,U,48973,999,24382,-.26051255E-3,-.87E-6,0
ONEWEB-0256,2021-060H,2026-07-18T12:47:36.690720,13.16587678,.0002053,87.9075,222.5560,94.8908,265.2457,0,U,48974,999,24375,.2446E-2,.948E-5,0
ONEWEB-0257,2021-060J,2026-07-18T19:02:38.731776,13.16593954,.00020698,87.9076,222.4929,97.5363,262.6003,0,U,48975,999,24374,-.13487961E-3,-.39E-6,0
ONEWEB-0258,2021-060K,2026-07-18T19:04:52.974912,13.16613453,.00020873,87.9078,222.5040,91.5448,268.5922,0,U,48976,999,24375,.46795996E-2,.1803E-4,0
ONEWEB-0259,2021-060L,2026-07-18T18:55:48.330048,13.16594123,.00022579,87.9075,222.5048,94.6504,265.4885,0,U,48977,999,24378,-.12785309E-3,-.36E-6,0
ONEWEB-0260,2021-060M,2026-07-18T18:43:14.184192,13.16593837,.00017075,87.9074,222.5067,94.5517,265.5809,0,U,48978,999,24376,-.51385851E-3,-.184E-5,0
ONEWEB-0261,2021-060N,2026-07-18T12:31:38.995968,13.16593390,.00020907,87.9075,222.5588,102.2482,257.8884,0,U,48979,999,24378,.17372538E-3,.79E-6,0
ONEWEB-0262,2021-060P,2026-07-18T19:20:53.112192,13.16593563,.00023497,87.9077,222.4892,94.2233,265.9166,0,U,48980,999,24378,-.25158262E-4,.3E-7,0
ONEWEB-0263,2021-060Q,2026-07-18T10:59:18.157920,13.16594060,.00022291,87.9079,222.5698,100.2842,259.8540,0,U,48981,999,24370,-.17239209E-4,.6E-7,0
ONEWEB-0264,2021-060R,2026-07-18T19:10:36.592896,13.16592313,.00019758,87.9072,222.5041,98.3259,261.8096,0,U,48982,999,24375,-.88342338E-4,-.21E-6,0
ONEWEB-0266,2021-060T,2026-07-18T19:41:22.911648,13.16594664,.00021014,87.9077,222.4914,91.4617,268.6755,0,U,48984,999,24374,-.10997988E-3,-.29E-6,0
ONEWEB-0267,2021-060U,2026-07-18T18:07:55.604352,13.16594691,.00020626,87.9080,222.5014,99.4193,260.7171,0,U,48985,999,24374,.3437261E-3,.144E-5,0
ONEWEB-0268,2021-060V,2026-07-18T11:54:00.134496,13.16598868,.00019755,87.9075,222.5621,91.9337,268.2020,0,U,48986,999,24397,-.25311191E-2,-.955E-5,0
ONEWEB-0269,2021-060W,2026-07-18T18:44:24.256320,13.16594094,.00019472,87.9071,222.5055,88.9992,271.1362,0,U,48987,999,24378,-.12757705E-3,-.36E-6,0
ONEWEB-0270,2021-060X,2026-07-18T11:51:42.900192,13.16592349,.0002357,87.9079,222.5645,98.7974,261.3424,0,U,48988,999,24378,.754765E-5,.16E-6,0
ONEWEB-0271,2021-060Y,2026-07-18T11:33:30.248640,13.16594199,.00021588,87.9075,222.5563,99.5018,260.6357,0,U,48989,999,24378,-.25009639E-3,-.83E-6,0
ONEWEB-0272,2021-060Z,2026-07-18T12:05:24.494208,13.16595271,.00019041,87.9070,222.5626,100.0064,260.1282,0,U,48990,999,24373,.13942313E-3,.66E-6,0
ONEWEB-0273,2021-060AA,2026-07-18T12:37:18.888384,13.16601629,.0002232,87.9076,222.5595,95.2951,264.8435,0,U,48991,999,24371,.22648E-2,.879E-5,0
ONEWEB-0274,2021-060AB,2026-07-18T18:42:06.013728,13.16595564,.00017771,87.9071,222.5082,96.3564,263.7770,0,U,48992,999,24378,-.21350644E-3,-.69E-6,0
ONEWEB-0275,2021-060AC,2026-07-18T11:08:21.772032,13.16606803,.00018978,87.9081,222.5629,91.0269,269.1080,0,U,48993,999,24367,.20149005E-2,.783E-5,0
ONEWEB-0276,2021-060AD,2026-07-18T19:14:02.794272,13.16593798,.00019057,87.9075,222.4952,94.8043,265.3306,0,U,48994,999,24373,-.51090285E-4,-.7E-7,0
ONEWEB-0277,2021-060AE,2026-07-18T12:14:32.614080,13.16595345,.00021606,87.9072,222.5601,97.7063,262.4313,0,U,48995,999,24368,.13538335E-3,.65E-6,0
ONEWEB-0278,2021-060AF,2026-07-18T12:00:51.928128,13.16593456,.00021975,87.9076,222.5542,88.2727,271.8655,0,U,48996,999,24381,.12454671E-3,.6E-6,0
ONEWEB-0279,2021-060AG,2026-07-18T12:12:15.859296,13.16593853,.0002038,87.9078,222.5507,100.9998,259.1362,0,U,48997,999,24374,.2375733E-3,.104E-5,0
ONEWEB-0280,2021-060AH,2026-07-18T19:51:39.024000,13.16595451,.00023892,87.9077,222.4915,93.3543,266.7862,0,U,48998,999,24372,.30402957E-3,.129E-5,0
ONEWEB-0281,2021-060AJ,2026-07-18T18:10:10.278624,13.16603322,.00019994,87.9085,222.5012,89.7543,270.3817,0,U,48999,999,24378,-.62074558E-2,-.236E-4,0
ONEWEB-0282,2021-060AK,2026-07-18T11:35:46.495392,13.16594601,.00022069,87.9075,222.5632,95.5078,264.6305,0,U,49000,999,24372,-.14187001E-3,-.41E-6,0
ONEWEB-0283,2021-060AL,2026-07-18T11:19:49.001952,13.16593736,.00020491,87.9077,222.5643,97.6335,262.5028,0,U,49001,999,24373,-.16768262E-3,-.51E-6,0
ONEWEB-0284,2021-060AM,2026-07-18T18:28:27.018624,13.16594692,.00023777,87.9079,222.4993,89.8043,270.3360,0,U,49002,999,24375,-.23094801E-3,-.75E-6,0
ONEWEB-0285,2021-075A,2026-07-18T20:25:42.247488,13.12445667,.00017446,87.8975,344.3676,90.6808,269.4520,0,U,49075,999,23936,.12717984E-2,.47E-5,0
ONEWEB-0286,2021-075B,2026-07-18T21:49:39.350208,13.12443919,.00017193,87.8967,344.3694,91.9738,268.1588,0,U,49076,999,23872,-.21324211E-3,-.64E-6,0
ONEWEB-0287,2021-075C,2026-07-18T21:47:28.758336,13.17648387,.0001781,87.9149,359.5550,82.0954,278.0380,0,U,49077,999,23780,-.21671674E-4,.4E-7,0
ONEWEB-0288,2021-075D,2026-07-18T21:15:41.300352,13.12442157,.00018612,87.8972,344.3537,89.6820,270.4522,0,U,49078,999,23934,-.10925871E-2,-.38E-5,0
ONEWEB-0289,2021-075E,2026-07-18T20:54:00.918144,13.17649783,.0002287,87.9151,359.5814,95.4120,264.7273,0,U,49079,999,23837,-.81436908E-4,-.19E-6,0
ONEWEB-0290,2021-075F,2026-07-18T20:15:08.212320,13.17646643,.000254,87.9159,359.5582,100.8825,259.2592,0,U,49080,999,23778,-.56016917E-3,-.205E-5,0
ONEWEB-0291,2021-075G,2026-07-18T21:42:38.704896,13.17648975,.00020441,87.9150,359.5529,84.9758,275.1607,0,U,49081,999,23778,.71906993E-3,.292E-5,0
ONEWEB-0293,2021-075H,2026-07-18T20:29:42.645984,13.17648440,.00020221,87.9149,359.5657,92.8635,267.2728,0,U,49082,999,23780,-.59747394E-3,-.219E-5,0
ONEWEB-0294,2021-075J,2026-07-18T21:25:26.787360,13.12443632,.00021744,87.8975,344.3561,96.4662,263.6714,0,U,49083,999,23873,-.11718973E-2,-.409E-5,0
ONEWEB-0295,2021-075K,2026-07-18T20:28:30.078624,13.17650378,.00019349,87.9151,359.5698,84.1086,276.0266,0,U,49084,999,23776,.44583528E-4,.3E-6,0
